{"type": "FeatureCollection", "features": [{"type": "Feature", "properties": {"norad_id": 26766, "name": "INTELSAT 10 (IS-10)", "group": "intelsat", "lat": 1.1490838712053335, "lon": -126.58382289021554, "alt_km": 36107.29618938175, "timestamp": "2025-12-26T03:50:11.755119+00:00", "meta": {"OBJECT_NAME": "INTELSAT 10 (IS-10)", "OBJECT_ID": "2001-019A", "EPOCH": "2025-12-25T19:25:55.835328", "MEAN_MOTION": 0.9907201, "ECCENTRICITY": 0.0008005, "INCLINATION": 8.6586, "RA_OF_ASC_NODE": 61.0243, "ARG_OF_PERICENTER": 229.8346, "MEAN_ANOMALY": 177.6501, "EPHEMERIS_TYPE": 0, "CLASSIFICATION_TYPE": "U", "NORAD_CAT_ID": 26766, "ELEMENT_SET_NO": 999, "REV_AT_EPOCH": 4386, "BSTAR": 0, "MEAN_MOTION_DOT": 3.8e-07, "MEAN_MOTION_DDOT": 0}, "tle": {"line1": "1 26766U 01019A   25359.80967402  .00000038  00000+0  00000+0 0  9997", "line2": "2 26766   8.6586  61.0243 0008005 229.8346 177.6501  0.99072010 43861"}}, "geometry": {"type": "Point", "coordinates": [-126.58382289021554, 1.1490838712053335]}}, {"type": "Feature", "properties": {"norad_id": 26900, "name": "INTELSAT 902 (IS-902)", "group": "intelsat", "lat": 2.7085716399378135, "lon": 102.10343172385306, "alt_km": 35805.22569410903, "timestamp": "2025-12-26T03:50:11.755142+00:00", "meta": {"OBJECT_NAME": "INTELSAT 902 (IS-902)", "OBJECT_ID": "2001-039A", "EPOCH": "2025-12-15T13:09:02.081664", "MEAN_MOTION": 1.0027087, "ECCENTRICITY": 0.00045028, "INCLINATION": 5.6536, "RA_OF_ASC_NODE": 74.0372, "ARG_OF_PERICENTER": 189.6359, "MEAN_ANOMALY": 327.9329, "EPHEMERIS_TYPE": 0, "CLASSIFICATION_TYPE": "U", "NORAD_CAT_ID": 26900, "ELEMENT_SET_NO": 999, "REV_AT_EPOCH": 8885, "BSTAR": 0, "MEAN_MOTION_DOT": -2.65e-06, "MEAN_MOTION_DDOT": 0}, "tle": {"line1": "1 26900U 01039A   25349.54794076 -.00000265  00000+0  00000+0 0  9997", "line2": "2 26900   5.6536  74.0372 0004502 189.6359 327.9329  1.00270870 88858"}}, "geometry": {"type": "Point", "coordinates": [102.10343172385306, 2.7085716399378135]}}, {"type": "Feature", "properties": {"norad_id": 27380, "name": "INTELSAT 904 (IS-904)", "group": "intelsat", "lat": 4.960490721153693, "lon": 120.79772552535431, "alt_km": 35793.16815191715, "timestamp": "2025-12-26T03:50:11.755160+00:00", "meta": {"OBJECT_NAME": "INTELSAT 904 (IS-904)", "OBJECT_ID": "2002-007A", "EPOCH": "2025-12-24T23:13:20.404128", "MEAN_MOTION": 1.00272977, "ECCENTRICITY": 0.00019711, "INCLINATION": 6.4832, "RA_OF_ASC_NODE": 71.2913, "ARG_OF_PERICENTER": 246.5744, "MEAN_ANOMALY": 92.7188, "EPHEMERIS_TYPE": 0, "CLASSIFICATION_TYPE": "U", "NORAD_CAT_ID": 27380, "ELEMENT_SET_NO": 999, "REV_AT_EPOCH": 5001, "BSTAR": 0, "MEAN_MOTION_DOT": -2.07e-06, "MEAN_MOTION_DDOT": 0}, "tle": {"line1": "1 27380U 02007A   25358.96759727 -.00000207  00000+0  00000+0 0  9992", "line2": "2 27380   6.4832  71.2913 0001971 246.5744  92.7188  1.00272977 50014"}}, "geometry": {"type": "Point", "coordinates": [120.79772552535431, 4.960490721153693]}}, {"type": "Feature", "properties": {"norad_id": 27426, "name": "DIRECTV 5 (TEMPO 1)", "group": "intelsat", "lat": -2.5432568387413634, "lon": 42.44888090584638, "alt_km": 35793.659114787646, "timestamp": "2025-12-26T03:50:11.755174+00:00", "meta": {"OBJECT_NAME": "DIRECTV 5 (TEMPO 1)", "OBJECT_ID": "2002-023A", "EPOCH": "2025-12-25T07:28:38.731296", "MEAN_MOTION": 1.00271555, "ECCENTRICITY": 0.0003354, "INCLINATION": 4.4323, "RA_OF_ASC_NODE": 77.5052, "ARG_OF_PERICENTER": 204.4666, "MEAN_ANOMALY": 174.1445, "EPHEMERIS_TYPE": 0, "CLASSIFICATION_TYPE": "U", "NORAD_CAT_ID": 27426, "ELEMENT_SET_NO": 999, "REV_AT_EPOCH": 8638, "BSTAR": 0, "MEAN_MOTION_DOT": -3.7e-07, "MEAN_MOTION_DDOT": 0}, "tle": {"line1": "1 27426U 02023A   25359.31155939 -.00000037  00000+0  00000+0 0  9997", "line2": "2 27426   4.4323  77.5052 0003354 204.4666 174.1445  1.00271555 86385"}}, "geometry": {"type": "Point", "coordinates": [42.44888090584638, -2.5432568387413634]}}, {"type": "Feature", "properties": {"norad_id": 27438, "name": "INTELSAT 905 (IS-905)", "group": "intelsat", "lat": -5.273920221382968, "lon": 15.471120896815671, "alt_km": 35787.44700676385, "timestamp": "2025-12-26T03:50:11.755187+00:00", "meta": {"OBJECT_NAME": "INTELSAT 905 (IS-905)", "OBJECT_ID": "2002-027A", "EPOCH": "2025-12-23T05:41:27.377952", "MEAN_MOTION": 1.00273243, "ECCENTRICITY": 0.00027491, "INCLINATION": 6.3102, "RA_OF_ASC_NODE": 71.9349, "ARG_OF_PERICENTER": 206.5226, "MEAN_ANOMALY": 121.7385, "EPHEMERIS_TYPE": 0, "CLASSIFICATION_TYPE": "U", "NORAD_CAT_ID": 27438, "ELEMENT_SET_NO": 999, "REV_AT_EPOCH": 4959, "BSTAR": 0, "MEAN_MOTION_DOT": 1.12e-06, "MEAN_MOTION_DDOT": 0}, "tle": {"line1": "1 27438U 02027A   25357.23712243  .00000112  00000+0  00000+0 0  9993", "line2": "2 27438   6.3102  71.9349 0002749 206.5226 121.7385  1.00273243 49592"}}, "geometry": {"type": "Point", "coordinates": [15.471120896815671, -5.273920221382968]}}, {"type": "Feature", "properties": {"norad_id": 27445, "name": "GALAXY 3C (G-3C)", "group": "intelsat", "lat": -1.2631518449339347, "lon": 57.62176124824705, "alt_km": 35787.691135558925, "timestamp": "2025-12-26T03:50:11.755200+00:00", "meta": {"OBJECT_NAME": "GALAXY 3C (G-3C)", "OBJECT_ID": "2002-030A", "EPOCH": "2025-12-25T14:19:42.420000", "MEAN_MOTION": 1.00271629, "ECCENTRICITY": 0.0001018, "INCLINATION": 3.2938, "RA_OF_ASC_NODE": 80.3705, "ARG_OF_PERICENTER": 86.0973, "MEAN_ANOMALY": 47.9599, "EPHEMERIS_TYPE": 0, "CLASSIFICATION_TYPE": "U", "NORAD_CAT_ID": 27445, "ELEMENT_SET_NO": 999, "REV_AT_EPOCH": 4475, "BSTAR": 0, "MEAN_MOTION_DOT": -1.32e-06, "MEAN_MOTION_DDOT": 0}, "tle": {"line1": "1 27445U 02030A   25359.59701875 -.00000132  00000+0  00000+0 0  9998", "line2": "2 27445   3.2938  80.3705 0001018  86.0973  47.9599  1.00271629 44756"}}, "geometry": {"type": "Point", "coordinates": [57.62176124824705, -1.2631518449339347]}}, {"type": "Feature", "properties": {"norad_id": 27513, "name": "INTELSAT 906 (IS-906)", "group": "intelsat", "lat": 3.3358848327143478, "lon": -143.35329938138852, "alt_km": 35773.061568942474, "timestamp": "2025-12-26T03:50:11.755212+00:00", "meta": {"OBJECT_NAME": "INTELSAT 906 (IS-906)", "OBJECT_ID": "2002-041A", "EPOCH": "2025-12-25T18:30:25.911072", "MEAN_MOTION": 1.00270895, "ECCENTRICITY": 0.0006177, "INCLINATION": 5.3631, "RA_OF_ASC_NODE": 75.0767, "ARG_OF_PERICENTER": 202.1174, "MEAN_ANOMALY": 159.0704, "EPHEMERIS_TYPE": 0, "CLASSIFICATION_TYPE": "U", "NORAD_CAT_ID": 27513, "ELEMENT_SET_NO": 999, "REV_AT_EPOCH": 8529, "BSTAR": 0, "MEAN_MOTION_DOT": 3.3e-07, "MEAN_MOTION_DDOT": 0}, "tle": {"line1": "1 27513U 02041A   25359.77113323  .00000033  00000+0  00000+0 0  9990", "line2": "2 27513   5.3631  75.0767 0006177 202.1174 159.0704  1.00270895 85290"}}, "geometry": {"type": "Point", "coordinates": [-143.35329938138852, 3.3358848327143478]}}, {"type": "Feature", "properties": {"norad_id": 27954, "name": "GALAXY 13 (HORIZONS-1)", "group": "intelsat", "lat": -0.9693558506023626, "lon": 2.451347531053046, "alt_km": 35786.03251921723, "timestamp": "2025-12-26T03:50:11.755225+00:00", "meta": {"OBJECT_NAME": "GALAXY 13 (HORIZONS-1)", "OBJECT_ID": "2003-044A", "EPOCH": "2025-12-25T17:29:16.765728", "MEAN_MOTION": 1.00272154, "ECCENTRICITY": 0.0002307, "INCLINATION": 0.9704, "RA_OF_ASC_NODE": 86.3013, "ARG_OF_PERICENTER": 186.2306, "MEAN_ANOMALY": 294.243, "EPHEMERIS_TYPE": 0, "CLASSIFICATION_TYPE": "U", "NORAD_CAT_ID": 27954, "ELEMENT_SET_NO": 999, "REV_AT_EPOCH": 4483, "BSTAR": 0, "MEAN_MOTION_DOT": 1.54e-06, "MEAN_MOTION_DDOT": 0}, "tle": {"line1": "1 27954U 03044A   25359.72866627  .00000154  00000+0  00000+0 0  9994", "line2": "2 27954   0.9704  86.3013 0002307 186.2306 294.2430  1.00272154 44833"}}, "geometry": {"type": "Point", "coordinates": [2.451347531053046, -0.9693558506023626]}}, {"type": "Feature", "properties": {"norad_id": 28358, "name": "INTELSAT 10-02", "group": "intelsat", "lat": 0.030203111169485874, "lon": 151.48531536761095, "alt_km": 35791.08080420987, "timestamp": "2025-12-26T03:50:11.755238+00:00", "meta": {"OBJECT_NAME": "INTELSAT 10-02", "OBJECT_ID": "2004-022A", "EPOCH": "2025-12-25T02:23:21.556320", "MEAN_MOTION": 1.00270312, "ECCENTRICITY": 0.0001221, "INCLINATION": 0.0162, "RA_OF_ASC_NODE": 46.3363, "ARG_OF_PERICENTER": 259.2593, "MEAN_ANOMALY": 183.1536, "EPHEMERIS_TYPE": 0, "CLASSIFICATION_TYPE": "U", "NORAD_CAT_ID": 28358, "ELEMENT_SET_NO": 999, "REV_AT_EPOCH": 7881, "BSTAR": 0, "MEAN_MOTION_DOT": 1e-07, "MEAN_MOTION_DDOT": 0}, "tle": {"line1": "1 28358U 04022A   25359.09955505  .00000010  00000+0  00000+0 0  9995", "line2": "2 28358   0.0162  46.3363 0001221 259.2593 183.1536  1.00270312 78810"}}, "geometry": {"type": "Point", "coordinates": [151.48531536761095, 0.030203111169485874]}}, {"type": "Feature", "properties": {"norad_id": 28626, "name": "XM-3 (RHYTHM)", "group": "intelsat", "lat": 0.17396562388849224, "lon": -157.0702805434309, "alt_km": 36168.88041441404, "timestamp": "2025-12-26T03:50:11.755250+00:00", "meta": {"OBJECT_NAME": "XM-3 (RHYTHM)", "OBJECT_ID": "2005-008A", "EPOCH": "2025-12-25T17:26:19.235328", "MEAN_MOTION": 0.9895028, "ECCENTRICITY": 0.0002212, "INCLINATION": 0.2062, "RA_OF_ASC_NODE": 82.2629, "ARG_OF_PERICENTER": 272.7612, "MEAN_ANOMALY": 53.5894, "EPHEMERIS_TYPE": 0, "CLASSIFICATION_TYPE": "U", "NORAD_CAT_ID": 28626, "ELEMENT_SET_NO": 999, "REV_AT_EPOCH": 4087, "BSTAR": 0, "MEAN_MOTION_DOT": 9.1e-07, "MEAN_MOTION_DDOT": 0}, "tle": {"line1": "1 28626U 05008A   25359.72661152  .00000091  00000+0  00000+0 0  9999", "line2": "2 28626   0.2062  82.2629 0002212 272.7612  53.5894  0.98950280 40873"}}, "geometry": {"type": "Point", "coordinates": [-157.0702805434309, 0.17396562388849224]}}]}